STARLINK-36176          
1 67026U 25293Z   26001.58335648 -.00009920  00000+0 -15876-3 0  9994
2 67026  69.9997 267.0874 0003284 267.8871 330.6119 15.52512692  3400
STARLINK-36171          
1 67027U 25293AA  26001.58335648 -.00010531  00000+0 -16870-3 0  9990
2 67027  69.9998 267.0895 0003149 265.5165 331.0592 15.52516970  3409
STARLINK-36132          
1 67028U 25293AB  26001.58335648 -.00058576  00000+0 -95503-3 0  9992
2 67028  69.9999 267.0835 0003124 258.8329 343.4629 15.52560045  3405
STARLINK-36190          
1 67029U 25293AC  26001.58335648 -.00014548  00000+0 -23393-3 0  9992
2 67029  69.9999 267.0850 0003215 253.4637 346.8938 15.52548660  3406
STARLINK-36138          
1 67030U 25294A   26001.58335648  .00058540  00000+0  99738-3 0  9999
2 67030  43.0004  62.3817 0001179 271.5318 128.7566 15.50546228  3287
STARLINK-36150          
1 67031U 25294B   26001.58335648 -.02033648  00000+0 -44096-1 0  9991
2 67031  43.0006  62.3880 0001346 284.8084 112.4234 15.47033436  3485
STARLINK-36131          
1 67032U 25294C   26001.58335648 -.01236090  00000+0 -31745-1 0  9994
2 67032  43.0005  62.4404 0001456 289.2855  86.2886 15.41541484  3285
STARLINK-36137          
1 67033U 25294D   26001.58335648 -.01660291  00000+0 -40459-1 0  9991
2 67033  43.0011  62.4201 0001242 269.4431 115.5469 15.43518346  3287
STARLINK-36140          
1 67034U 25294E   26001.58335648 -.02027441  00000+0 -42662-1 0  9995
2 67034  43.0006  62.3690 0001288 281.9806 123.1035 15.47877205  3288
STARLINK-36085          
1 67035U 25294F   26001.58335648 -.00320895  00000+0 -56610-2 0  9992
2 67035  43.0006  62.3526 0001455 265.1958 146.5977 15.50726994  3281
STARLINK-36125          
1 67036U 25294G   26001.58335648 -.00041915  00000+0 -71262-3 0  9997
2 67036  43.0005  62.3572 0001395 272.4983 137.3903 15.50573285  3486
STARLINK-35732          
1 67037U 25294H   26001.58335648 -.00041133  00000+0 -69893-3 0  9997
2 67037  43.0004  62.3480 0001424 275.2377 138.4647 15.50581727  3404
